0 TRANSIT 5E-5 DEB
1 38526U 64083Q   13282.43102324  .00011523  00000-0  86528-2 0  4156
2 38526 089.9243 177.7500 0099066 090.7874 325.6904 13.92031757450885
0 TRANSIT 5E-5 DEB
1 38526U 64083Q   13283.43910063  .00011652  00000-0  87425-2 0  4165
2 38526 089.9247 177.7418 0099696 087.6967 337.4701 13.92049527451021
0 TRANSIT 5E-5 DEB
1 38526U 64083Q   13284.44466959  .00010961  00000-0  82182-2 0  4175
2 38526 089.9255 177.7341 0100320 084.6460 336.7100 13.92064066451162
0 TRANSIT 5E-5 DEB
1 38526U 64083Q   13285.45004170  .00009434  00000-0  70674-2 0  4187
2 38526 089.9261 177.7262 0100968 081.6124 335.0036 13.92079750451305
0 TRANSIT 5E-5 DEB
1 38526U 64083Q   13286.46944709  .00008178  00000-0  61230-2 0  4193
2 38526 089.9259 177.7178 0101327 078.5120 043.7069 13.92093943451443
0 TRANSIT 5E-5 DEB
1 38526U 64083Q   13287.04289670  .00008721  00000-0  65253-2 0  4202
2 38526 089.9265 177.7129 0101849 076.7753 037.5444 13.92105509451526
0 TRANSIT 5E-5 DEB
1 38526U 64083Q   13290.03913672  .00011387  00000-0  85166-2 0  4219
2 38526 089.9255 177.6923 0100900 068.1923 293.1167 13.92175790451944
0 TRANSIT 5E-5 DEB
1 38526U 64083Q   13291.14202244  .00012067  00000-0  89989-2 0  4222
2 38526 089.9271 177.6805 0103767 064.5352 060.8548 13.92199378452098
0 TRANSIT 5E-5 DEB
1 38526U 64083Q   13292.42212306  .00012211  00000-0  90985-2 0  4234
2 38526 089.9272 177.6705 0104162 060.7580 356.4938 13.92228737452278
0 TRANSIT 5E-5 DEB
1 38526U 64083Q   13293.42815958  .00013014  00000-0  96903-2 0  4246
2 38526 089.9273 177.6628 0104478 057.8028 358.6547 13.92252024452419
0 TRANSIT 5E-5 DEB
1 38526U 64083Q   13294.95199751  .00013931  00000-0  10361-1 0  4253
2 38526 089.9274 177.6511 0105008 053.3525 076.1296 13.92288301452627
0 TRANSIT 5E-5 DEB
1 38526U 64083Q   13296.17212145  .00015190  00000-0  11285-1 0  4268
2 38526 089.9277 177.6415 0105463 049.8053 071.5193 13.92323574452799
